CCSDS_OMM_VERS = 2.0
CREATION_DATE  = 
ORIGINATOR     = 

OBJECT_NAME    = STARLINK-35583
OBJECT_ID      = 2025-270Z
CENTER_NAME    = EARTH
REF_FRAME      = TEME
TIME_SYSTEM    = UTC
MEAN_ELEMENT_THEORY = SGP/SGP4

EPOCH          = 2025-12-07T22:00:03.000096
MEAN_MOTION    = 15.62826794
ECCENTRICITY   = .00014751
INCLINATION    = 42.9990
RA_OF_ASC_NODE = 220.9862
ARG_OF_PERICENTER = 269.0052
MEAN_ANOMALY   = 145.8068

EPHEMERIS_TYPE = 0
CLASSIFICATION_TYPE = U
NORAD_CAT_ID   = 66611
ELEMENT_SET_NO = 999
REV_AT_EPOCH   = 373
BSTAR          = -.24573903E-1
MEAN_MOTION_DOT = -.2001589E-1
MEAN_MOTION_DDOT = 0

CCSDS_OMM_VERS = 2.0
CREATION_DATE  = 
ORIGINATOR     = 

OBJECT_NAME    = STARLINK-36039
OBJECT_ID      = 2025-270AA
CENTER_NAME    = EARTH
REF_FRAME      = TEME
TIME_SYSTEM    = UTC
MEAN_ELEMENT_THEORY = SGP/SGP4

EPOCH          = 2025-12-07T22:00:03.000096
MEAN_MOTION    = 15.62827255
ECCENTRICITY   = .00014255
INCLINATION    = 42.9987
RA_OF_ASC_NODE = 220.9811
ARG_OF_PERICENTER = 270.8415
MEAN_ANOMALY   = 145.8868

EPHEMERIS_TYPE = 0
CLASSIFICATION_TYPE = U
NORAD_CAT_ID   = 66612
ELEMENT_SET_NO = 999
REV_AT_EPOCH   = 362
BSTAR          = -.24568287E-1
MEAN_MOTION_DOT = -.2001182E-1
MEAN_MOTION_DDOT = 0

CCSDS_OMM_VERS = 2.0
CREATION_DATE  = 
ORIGINATOR     = 

OBJECT_NAME    = STARLINK-36037
OBJECT_ID      = 2025-270AB
CENTER_NAME    = EARTH
REF_FRAME      = TEME
TIME_SYSTEM    = UTC
MEAN_ELEMENT_THEORY = SGP/SGP4

EPOCH          = 2025-12-07T22:00:03.000096
MEAN_MOTION    = 15.62828093
ECCENTRICITY   = .00014132
INCLINATION    = 42.9987
RA_OF_ASC_NODE = 220.9767
ARG_OF_PERICENTER = 271.6128
MEAN_ANOMALY   = 147.0323

EPHEMERIS_TYPE = 0
CLASSIFICATION_TYPE = U
NORAD_CAT_ID   = 66613
ELEMENT_SET_NO = 999
REV_AT_EPOCH   = 362
BSTAR          = -.24585034E-1
MEAN_MOTION_DOT = -.2002427E-1
MEAN_MOTION_DDOT = 0

CCSDS_OMM_VERS = 2.0
CREATION_DATE  = 
ORIGINATOR     = 

OBJECT_NAME    = STARLINK-36040
OBJECT_ID      = 2025-270AC
CENTER_NAME    = EARTH
REF_FRAME      = TEME
TIME_SYSTEM    = UTC
MEAN_ELEMENT_THEORY = SGP/SGP4

EPOCH          = 2025-12-07T22:00:03.000096
MEAN_MOTION    = 15.62827728
ECCENTRICITY   = .00014739
INCLINATION    = 42.9988
RA_OF_ASC_NODE = 220.9666
ARG_OF_PERICENTER = 274.0078
MEAN_ANOMALY   = 148.4704

EPHEMERIS_TYPE = 0
CLASSIFICATION_TYPE = U
NORAD_CAT_ID   = 66614
ELEMENT_SET_NO = 999
REV_AT_EPOCH   = 346
BSTAR          = -.24560392E-1
MEAN_MOTION_DOT = -.2000688E-1
MEAN_MOTION_DDOT = 0

CCSDS_OMM_VERS = 2.0
CREATION_DATE  = 
ORIGINATOR     = 

OBJECT_NAME    = STARLINK-35988
OBJECT_ID      = 2025-270AD
CENTER_NAME    = EARTH
REF_FRAME      = TEME
TIME_SYSTEM    = UTC
MEAN_ELEMENT_THEORY = SGP/SGP4

EPOCH          = 2025-12-07T22:00:03.000096
MEAN_MOTION    = 15.62827769
ECCENTRICITY   = .00014687
INCLINATION    = 42.9990
RA_OF_ASC_NODE = 220.9716
ARG_OF_PERICENTER = 270.8204
MEAN_ANOMALY   = 149.7394

EPHEMERIS_TYPE = 0
CLASSIFICATION_TYPE = U
NORAD_CAT_ID   = 66615
ELEMENT_SET_NO = 999
REV_AT_EPOCH   = 346
BSTAR          = -.24547141E-1
MEAN_MOTION_DOT = -.199974E-1
MEAN_MOTION_DDOT = 0

CCSDS_OMM_VERS = 2.0
CREATION_DATE  = 
ORIGINATOR     = 

OBJECT_NAME    = STARLINK-35391
OBJECT_ID      = 2025-270AE
CENTER_NAME    = EARTH
REF_FRAME      = TEME
TIME_SYSTEM    = UTC
MEAN_ELEMENT_THEORY = SGP/SGP4

EPOCH          = 2025-12-07T22:00:03.000096
MEAN_MOTION    = 15.62828195
ECCENTRICITY   = .00014059
INCLINATION    = 42.9990
RA_OF_ASC_NODE = 220.9623
ARG_OF_PERICENTER = 271.3001
MEAN_ANOMALY   = 153.0966

EPHEMERIS_TYPE = 0
CLASSIFICATION_TYPE = U
NORAD_CAT_ID   = 66616
ELEMENT_SET_NO = 999
REV_AT_EPOCH   = 373
BSTAR          = -.24595256E-1
MEAN_MOTION_DOT = -.2003158E-1
MEAN_MOTION_DDOT = 0

CCSDS_OMM_VERS = 2.0
CREATION_DATE  = 
ORIGINATOR     = 

OBJECT_NAME    = STARLINK-35940
OBJECT_ID      = 2025-271A
CENTER_NAME    = EARTH
REF_FRAME      = TEME
TIME_SYSTEM    = UTC
MEAN_ELEMENT_THEORY = SGP/SGP4

EPOCH          = 2025-12-07T22:00:03.000096
MEAN_MOTION    = 15.70788510
ECCENTRICITY   = .00009487
INCLINATION    = 53.1591
RA_OF_ASC_NODE = 210.6803
ARG_OF_PERICENTER = 83.7621
MEAN_ANOMALY   = 256.2237

EPHEMERIS_TYPE = 0
CLASSIFICATION_TYPE = U
NORAD_CAT_ID   = 66617
ELEMENT_SET_NO = 999
REV_AT_EPOCH   = 346
BSTAR          = -.17397008E-1
MEAN_MOTION_DOT = -.1951392E-1
MEAN_MOTION_DDOT = 0

CCSDS_OMM_VERS = 2.0
CREATION_DATE  = 
ORIGINATOR     = 

OBJECT_NAME    = STARLINK-35970
OBJECT_ID      = 2025-271B
CENTER_NAME    = EARTH
REF_FRAME      = TEME
TIME_SYSTEM    = UTC
MEAN_ELEMENT_THEORY = SGP/SGP4

EPOCH          = 2025-12-07T22:00:03.000096
MEAN_MOTION    = 15.70793541
ECCENTRICITY   = .00006683
INCLINATION    = 53.1593
RA_OF_ASC_NODE = 210.5680
ARG_OF_PERICENTER = 92.4635
MEAN_ANOMALY   = 300.8428

EPHEMERIS_TYPE = 0
CLASSIFICATION_TYPE = U
NORAD_CAT_ID   = 66618
ELEMENT_SET_NO = 999
REV_AT_EPOCH   = 346
BSTAR          = -.1747551E-1
MEAN_MOTION_DOT = -.1959338E-1
MEAN_MOTION_DDOT = 0

CCSDS_OMM_VERS = 2.0
CREATION_DATE  = 
ORIGINATOR     = 

OBJECT_NAME    = STARLINK-35951
OBJECT_ID      = 2025-271C
CENTER_NAME    = EARTH
REF_FRAME      = TEME
TIME_SYSTEM    = UTC
MEAN_ELEMENT_THEORY = SGP/SGP4

EPOCH          = 2025-12-07T22:00:03.000096
MEAN_MOTION    = 15.70793557
ECCENTRICITY   = .00007709
INCLINATION    = 53.1590
RA_OF_ASC_NODE = 210.6639
ARG_OF_PERICENTER = 95.8439
MEAN_ANOMALY   = 251.8057

EPHEMERIS_TYPE = 0
CLASSIFICATION_TYPE = U
NORAD_CAT_ID   = 66619
ELEMENT_SET_NO = 999
REV_AT_EPOCH   = 346
BSTAR          = -.17460083E-1
MEAN_MOTION_DOT = -.1957885E-1
MEAN_MOTION_DDOT = 0

CCSDS_OMM_VERS = 2.0
CREATION_DATE  = 
ORIGINATOR     = 

OBJECT_NAME    = STARLINK-35936
OBJECT_ID      = 2025-271D
CENTER_NAME    = EARTH
REF_FRAME      = TEME
TIME_SYSTEM    = UTC
MEAN_ELEMENT_THEORY = SGP/SGP4

EPOCH          = 2025-12-07T22:00:03.000096
MEAN_MOTION    = 15.70793036
ECCENTRICITY   = .00006553
INCLINATION    = 53.1592
RA_OF_ASC_NODE = 210.6763
ARG_OF_PERICENTER = 82.0634
MEAN_ANOMALY   = 259.8350

EPHEMERIS_TYPE = 0
CLASSIFICATION_TYPE = U
NORAD_CAT_ID   = 66620
ELEMENT_SET_NO = 999
REV_AT_EPOCH   = 346
BSTAR          = -.17446201E-1
MEAN_MOTION_DOT = -.1956388E-1
MEAN_MOTION_DDOT = 0

CCSDS_OMM_VERS = 2.0
CREATION_DATE  = 
ORIGINATOR     = 

OBJECT_NAME    = STARLINK-35847
OBJECT_ID      = 2025-271E
CENTER_NAME    = EARTH
REF_FRAME      = TEME
TIME_SYSTEM    = UTC
MEAN_ELEMENT_THEORY = SGP/SGP4

EPOCH          = 2025-12-07T22:00:03.000096
MEAN_MOTION    = 15.70795719
ECCENTRICITY   = .00007187
INCLINATION    = 53.1593
RA_OF_ASC_NODE = 210.5599
ARG_OF_PERICENTER = 90.6517
MEAN_ANOMALY   = 306.1918

EPHEMERIS_TYPE = 0
CLASSIFICATION_TYPE = U
NORAD_CAT_ID   = 66621
ELEMENT_SET_NO = 999
REV_AT_EPOCH   = 346
BSTAR          = -.17497326E-1
MEAN_MOTION_DOT = -.1961695E-1
MEAN_MOTION_DDOT = 0

CCSDS_OMM_VERS = 2.0
CREATION_DATE  = 
ORIGINATOR     = 

OBJECT_NAME    = STARLINK-35950
OBJECT_ID      = 2025-271F
CENTER_NAME    = EARTH
REF_FRAME      = TEME
TIME_SYSTEM    = UTC
MEAN_ELEMENT_THEORY = SGP/SGP4

EPOCH          = 2025-12-07T22:00:03.000096
MEAN_MOTION    = 15.70790503
ECCENTRICITY   = .00008253
INCLINATION    = 53.1591
RA_OF_ASC_NODE = 210.6601
ARG_OF_PERICENTER = 93.5627
MEAN_ANOMALY   = 256.0080

EPHEMERIS_TYPE = 0
CLASSIFICATION_TYPE = U
NORAD_CAT_ID   = 66622
ELEMENT_SET_NO = 999
REV_AT_EPOCH   = 346
BSTAR          = -.17446407E-1
MEAN_MOTION_DOT = -.1956345E-1
MEAN_MOTION_DDOT = 0

