STARLINK-35583          
1 66611U 25270Z   25341.91670139 -.02001589  00000+0 -24574-1 0  9996
2 66611  42.9990 220.9862 0001475 269.0052 145.8068 15.62826794  3730
STARLINK-36039          
1 66612U 25270AA  25341.91670139 -.02001182  00000+0 -24568-1 0  9999
2 66612  42.9987 220.9811 0001425 270.8415 145.8868 15.62827255  3628
STARLINK-36037          
1 66613U 25270AB  25341.91670139 -.02002427  00000+0 -24585-1 0  9992
2 66613  42.9987 220.9767 0001413 271.6128 147.0323 15.62828093  3627
STARLINK-36040          
1 66614U 25270AC  25341.91670139 -.02000688  00000+0 -24560-1 0  9993
2 66614  42.9988 220.9666 0001473 274.0078 148.4704 15.62827728  3468
STARLINK-35988          
1 66615U 25270AD  25341.91670139 -.01999740  00000+0 -24547-1 0  9994
2 66615  42.9990 220.9716 0001468 270.8204 149.7394 15.62827769  3461
STARLINK-35391          
1 66616U 25270AE  25341.91670139 -.02003158  00000+0 -24595-1 0  9998
2 66616  42.9990 220.9623 0001405 271.3001 153.0966 15.62828195  3738
STARLINK-35940          
1 66617U 25271A   25341.91670139 -.01951392  00000+0 -17397-1 0  9993
2 66617  53.1591 210.6803 0000948  83.7621 256.2237 15.70788510  3462
STARLINK-35970          
1 66618U 25271B   25341.91670139 -.01959338  00000+0 -17476-1 0  9990
2 66618  53.1593 210.5680 0000668  92.4635 300.8428 15.70793541  3466
STARLINK-35951          
1 66619U 25271C   25341.91670139 -.01957885  00000+0 -17460-1 0  9999
2 66619  53.1590 210.6639 0000770  95.8439 251.8057 15.70793557  3462
STARLINK-35936          
1 66620U 25271D   25341.91670139 -.01956388  00000+0 -17446-1 0  9992
2 66620  53.1592 210.6763 0000655  82.0634 259.8350 15.70793036  3467
STARLINK-35847          
1 66621U 25271E   25341.91670139 -.01961695  00000+0 -17497-1 0  9996
2 66621  53.1593 210.5599 0000718  90.6517 306.1918 15.70795719  3466
STARLINK-35950          
1 66622U 25271F   25341.91670139 -.01956345  00000+0 -17446-1 0  9997
2 66622  53.1591 210.6601 0000825  93.5627 256.0080 15.70790503  3462
